QZS-1R                  
1 49336U 21096A   23284.34130932 -.00000205  00000+0  00000+0 0  9993
2 49336  35.4297  94.3467 0745978 269.9640 273.2327  1.00280671  7183
